      2.10          N: GNSS NAV DATA                        RINEX VERSION / TYPE
fic2rin                                 06/27/2024 00:59:01 PGM / RUN BY / DATE
                                                            END OF HEADER
6  24  6 26  1 59 44.0  .197578687221D-03 -.218278728426D-10  .000000000000D+00
     .900000000000D+01  .110625000000D+03  .364586615067D-08  .154275388859D+01
     .578165054321D-05  .293404120021D-02  .669993460178D-05  .515364708900D+04
     .266384000000D+06  .875443220139D-07  .153481329214D+01  .968575477600D-07
     .989500371314D+00  .265187500000D+03 -.697290250149D+00 -.776710924556D-08
     .333228166005D-09  .100000000000D+01  .232000000000D+04  .000000000000D+00
     .240000000000D+01  .000000000000D+00  .372529029846D-08  .900000000000D+01
     .259200000000D+06  .400000000000D+01
2  24  6 26  2  0  0.0 -.410787761211D-03  .716227077646D-11  .000000000000D+00
     .610000000000D+02  .105187500000D+03  .404802575938D-08 -.255860521956D+01
     .559166073799D-05  .159871494398D-01  .655278563499D-05  .515370413208D+04
     .266400000000D+06  .111758708954D-06  .143581784662D+01  .188127160072D-06
     .967119477277D+00  .250875000000D+03 -.116985560790D+01 -.775818030221D-08
     .286083345091D-09  .100000000000D+01  .232000000000D+04  .000000000000D+00
     .240000000000D+01  .000000000000D+00 -.176951289177D-07  .610000000000D+02
     .259200000000D+06  .400000000000D+01
1  24  6 26  2  0  0.0  .253489241004D-03 -.648014975013D-11  .000000000000D+00
     .109000000000D+03  .709375000000D+01  .624383150922D-08 -.133905353549D+01
     .406056642532D-06  .133830469567D-01  .574439764023D-05  .515376416397D+04
     .266400000000D+06  .290572643280D-06 -.557986636577D+00  .216066837311D-06
     .954261046174D+00  .264875000000D+03  .103135661975D+01 -.822069956799D-08
    -.302155443130D-09  .100000000000D+01  .232000000000D+04  .000000000000D+00
     .340000000000D+01  .630000000000D+02 -.195577740669D-07  .109000000000D+03
     .259200000000D+06  .400000000000D+01
5  24  6 26  2  0  0.0 -.177613459527D-03 -.136424205266D-11  .000000000000D+00
     .680000000000D+02 -.326562500000D+02  .457197615544D-08 -.241471374275D+01
    -.186078250408D-05  .593043293338D-02  .126287341118D-05  .515363346863D+04
     .266400000000D+06  .502914190292D-07  .251969572993D+01  .111758708954D-07
     .971905819001D+00  .354625000000D+03  .127419732558D+01 -.836070539980D-08
     .134648465792D-09  .100000000000D+01  .232000000000D+04  .000000000000D+00
     .240000000000D+01  .000000000000D+00 -.107102096081D-07  .680000000000D+02
     .259200000000D+06  .400000000000D+01
4  24  6 26  2  0  0.0  .391015317291D-03  .795807864051D-11  .000000000000D+00
     .197000000000D+03 -.970312500000D+02  .435768151493D-08 -.310466178553D+01
    -.499375164509D-05  .287477008533D-02  .964291393757D-05  .515374028778D+04
     .266400000000D+06 -.651925802231D-07 -.263383817658D+01 -.372529029846D-08
     .965376799521D+00  .199281250000D+03 -.295960008105D+01 -.785354141724D-08
     .264296723305D-10  .100000000000D+01  .232000000000D+04  .000000000000D+00
     .240000000000D+01  .000000000000D+00 -.465661287308D-08  .197000000000D+03
     .259200000000D+06  .400000000000D+01
3  24  6 26  2  0  0.0  .430691987276D-03  .171667124960D-10  .000000000000D+00
     .144000000000D+03 -.337812500000D+02  .426160608443D-08  .177483058802D+00
    -.196509063244D-05  .563239236362D-02  .262074172497D-05  .515370542336D+04
     .266400000000D+06 -.558793544769D-08  .257142262020D+01  .391155481339D-07
     .984989988604D+00  .344593750000D+03  .111034030124D+01 -.828391648694D-08
     .232152527227D-10  .100000000000D+01  .232000000000D+04  .000000000000D+00
     .240000000000D+01  .000000000000D+00  .139698386192D-08  .144000000000D+03
     .259200000000D+06  .400000000000D+01
20 24  6 26  8  0  0.0  .373423565179D-03 -.454747350886D-12  .000000000000D+00
     .250000000000D+02  .543750000000D+01  .477769901034D-08 -.119868519990D+01
     .305473804474D-06  .368082174100D-02  .206194818020D-05  .515355051231D+04
     .288000000000D+06  .132247805595D-06  .239016550778D+01 -.260770320892D-07
     .954254432322D+00  .336250000000D+03 -.258712186120D+01 -.848928218411D-08
     .103575742917D-09  .100000000000D+01  .232000000000D+04  .000000000000D+00
     .240000000000D+01  .000000000000D+00 -.838190317154D-08  .250000000000D+02
     .280800000000D+06  .400000000000D+01
12 24  6 26  8  0  0.0 -.517267268151D-03 -.318323145621D-11  .000000000000D+00
     .620000000000D+02  .800000000000D+01  .498770775805D-08  .308033960652D+01
     .525265932083D-06  .871456589084D-02  .567361712456D-05  .515362730026D+04
     .288000000000D+06  .249594449997D-06 -.505413287281D+00 -.119209289551D-06
     .962253472348D+00  .267406250000D+03  .145482431676D+01 -.815641117584D-08
    -.201794119821D-09  .100000000000D+01  .232000000000D+04  .000000000000D+00
     .240000000000D+01  .000000000000D+00 -.125728547573D-07  .620000000000D+02
     .280800000000D+06  .400000000000D+01
18 24  6 26  8  0  0.0 -.629622023553D-03 -.454747350886D-11  .000000000000D+00
     .800000000000D+02  .991875000000D+02  .400873840862D-08 -.156991739098D+01
     .510178506374D-05  .426753470674D-02  .672973692417D-05  .515360568619D+04
     .288000000000D+06 -.122934579849D-06  .153829725788D+01 -.633299350739D-07
     .974347179117D+00  .259750000000D+03 -.305340009736D+01 -.785818446778D-08
     .146434671020D-09  .100000000000D+01  .232000000000D+04  .000000000000D+00
     .240000000000D+01  .000000000000D+00 -.838190317154D-08  .800000000000D+02
     .280800000000D+06  .400000000000D+01
24 24  6 26  8  0  0.0 -.480050221086D-03 -.216004991671D-11  .000000000000D+00
     .970000000000D+02  .790625000000D+01  .520378818724D-08 -.146709289783D+01
     .525265932083D-06  .153927823994D-01  .955909490585D-05  .515370891380D+04
     .288000000000D+06  .357627868652D-06 -.171896238587D+01  .763684511185D-07
     .933637551237D+00  .176406250000D+03  .984018583204D+00 -.817141180067D-08
     .504663878419D-09  .100000000000D+01  .232000000000D+04  .000000000000D+00
     .240000000000D+01  .000000000000D+00  .232830643654D-08  .970000000000D+02
     .280800000000D+06  .400000000000D+01
27 24  6 26  8  0  0.0 -.294540077448D-04 -.113686837722D-11  .000000000000D+00
     .540000000000D+02  .220312500000D+02  .453411743562D-08  .440491234354D+00
     .136904418468D-05  .125264056260D-01  .100526958704D-04  .515368240929D+04
     .288000000000D+06 -.242143869400D-07  .464630472536D+00  .143423676491D-06
     .962034675394D+00  .184843750000D+03  .796281028964D+00 -.814712507475D-08
    -.670027909352D-09  .100000000000D+01  .232000000000D+04  .000000000000D+00
     .240000000000D+01  .000000000000D+00  .186264514923D-08  .540000000000D+02
     .280800000000D+06  .400000000000D+01
16 24  6 26  8  0  0.0 -.253736972809D-03  .106865627458D-10  .000000000000D+00
     .530000000000D+02  .212500000000D+01  .513271379813D-08  .130077864071D+01
     .286847352982D-06  .138280838728D-01  .645406544209D-05  .515357111359D+04
     .288000000000D+06 -.216066837311D-06 -.487583690846D+00  .165775418282D-06
     .961731988866D+00  .261156250000D+03  .838166787388D+00 -.841320758672D-08
    -.310370071016D-09  .100000000000D+01  .232000000000D+04  .000000000000D+00
     .240000000000D+01  .000000000000D+00 -.102445483208D-07  .530000000000D+02
     .280800000000D+06  .400000000000D+01
21 24  6 26  8  0  0.0  .112970825285D-03 -.250111042988D-11  .000000000000D+00
     .650000000000D+02  .944062500000D+02  .449875881993D-08  .221047521574D+00
     .458769500256D-05  .251927246572D-01  .824779272079D-05  .515367955399D+04
     .288000000000D+06  .245869159698D-06  .142827495176D+01 -.292435288429D-06
     .961386437375D+00  .224250000000D+03 -.556106295305D+00 -.853678416275D-08
    -.142863093678D-11  .100000000000D+01  .232000000000D+04  .000000000000D+00
     .240000000000D+01  .000000000000D+00 -.102445483208D-07  .650000000000D+02
     .280800000000D+06  .400000000000D+01
28 24  6 26  8  0  0.0 -.305394642055D-03 -.164845914696D-10  .000000000000D+00
     .134000000000D+03  .143750000000D+02  .460983487527D-08  .251003049643D+01
     .581145286560D-06  .295136007480D-03  .106208026409D-04  .515367168999D+04
     .288000000000D+06 -.279396772385D-07 -.165412222709D+01  .298023223877D-07
     .961002368715D+00  .177593750000D+03  .160621506128D+01 -.793568769610D-08
     .554308803472D-09  .100000000000D+01  .232000000000D+04  .000000000000D+00
     .240000000000D+01  .000000000000D+00 -.931322574615D-08  .134000000000D+03
     .280800000000D+06  .400000000000D+01
31 24  6 26  8  0  0.0 -.227176118642D-03  .227373675443D-12  .000000000000D+00
     .700000000000D+02  .107500000000D+02  .478162774542D-08  .290857775408D+01
     .501051545143D-06  .104712665780D-01  .104680657387D-04  .515374355316D+04
     .288000000000D+06 -.726431608200D-07 -.159972751260D+01 -.931322574615D-07
     .953862025028D+00  .174531250000D+03  .685940630329D+00 -.784961268216D-08
     .576452582992D-09  .100000000000D+01  .232000000000D+04  .000000000000D+00
     .240000000000D+01  .000000000000D+00 -.135041773319D-07  .700000000000D+02
     .280800000000D+06  .400000000000D+01
30 24  6 26  8  0  0.0 -.368036329746D-03  .636646291241D-11  .000000000000D+00
     .840000000000D+02  .168750000000D+01  .522664628223D-08 -.262701347503D+01
    -.130385160446D-06  .718934182078D-02  .983849167824D-05  .515362195969D+04
     .288000000000D+06  .111758708954D-06 -.162120687606D+01 -.178813934326D-06
     .935046059004D+00  .178656250000D+03 -.245221665566D+01 -.818498379457D-08
     .540379651839D-09  .100000000000D+01  .232000000000D+04  .000000000000D+00
     .240000000000D+01  .000000000000D+00  .419095158577D-08  .840000000000D+02
     .280800000000D+06  .400000000000D+01
